GLOBALSTAR M057         
1 25943U 99058A   24159.86198883 -.00000111  00000+0 -16321-3 0  9996
2 25943  52.0005 330.5019 0001565 339.0023  21.0762 12.24787165121066
GLOBALSTAR M059         
1 25944U 99058B   24159.92412788 -.00000083  00000+0  45609-4 0  9996
2 25944  51.9989 139.6585 0000687 306.9654 137.2682 11.99962896529115
GLOBALSTAR M056         
1 25945U 99058C   24159.69576736 -.00000142  00000+0 -63394-3 0  9992
2 25945  51.9932 151.8532 0000659 161.2108  10.8886 12.04776381117481
GLOBALSTAR M031         
1 25946U 99058D   24160.19148437 -.00000104  00000+0 -13482-3 0  9994
2 25946  51.9975  65.2106 0001624 113.9753  52.7149 12.16010189119284
GLOBALSTAR M039         
1 25961U 99062A   24159.87556973 -.00000065  00000+0  21746-3 0  9994
2 25961  51.9861 328.7658 0002209 220.9864 139.0836 12.62293324132941
GLOBALSTAR M034         
1 25962U 99062B   24159.72017476 -.00000150  00000+0 -10987-2 0  9999
2 25962  51.9879 264.7704 0013879  56.7467  91.3533 11.79427793 94207
GLOBALSTAR M029         
1 25963U 99062C   24159.64641344 -.00000064  00000+0  27079-3 0  9992
2 25963  51.9824  28.7684 0003299  94.8583 299.7243 11.99878877124166
GLOBALSTAR M061         
1 25964U 99062D   24160.03214053 -.00000090  00000+0 -15732-3 0  9994
2 25964  51.9800  83.0326 0006441 345.7464  27.2507 11.76762239 77428
